[
    {
        "Altitude(m)": 707046.8185236186,
        "Argument of Periapsis(deg)": 0.0034170363559881197,
        "Eccentricity": 0.0,
        "Inclination(deg)": 45.0,
        "Latitude(deg)": 43.98415882208323,
        "Longitude(deg)": -138.94447137465974,
        "Mean Anomaly(deg)": 101.64176499424426,
        "RAAN(deg)": 214.99677441756256,
        "Satellite Name": "Constellation 1 952",
        "Satellite Number": 952,
        "Semi-Major Axis(m)": 7083131.272910544,
        "Time(s)": 57
    },
    {
        "Altitude(m)": 707044.1131041921,
        "Argument of Periapsis(deg)": 0.003476984362233526,
        "Eccentricity": 0.0,
        "Inclination(deg)": 45.0,
        "Latitude(deg)": 43.97207941549272,
        "Longitude(deg)": -138.86607699181306,
        "Mean Anomaly(deg)": 101.70246613449413,
        "RAAN(deg)": 214.99671782839698,
        "Satellite Name": "Constellation 1 952",
        "Satellite Number": 952,
        "Semi-Major Axis(m)": 7083131.272910544,
        "Time(s)": 58
    },
    {
        "Altitude(m)": 707041.3946089527,
        "Argument of Periapsis(deg)": 0.003536932368478932,
        "Eccentricity": 0.0,
        "Inclination(deg)": 45.0,
        "Latitude(deg)": 43.95994046184122,
        "Longitude(deg)": -138.78771627375232,
        "Mean Anomaly(deg)": 101.763167274744,
        "RAAN(deg)": 214.99666123923143,
        "Satellite Name": "Constellation 1 952",
        "Satellite Number": 952,
        "Semi-Major Axis(m)": 7083131.272910544,
        "Time(s)": 59
    },
    {
        "Altitude(m)": 707038.663053944,
        "Argument of Periapsis(deg)": 0.003596880374724337,
        "Eccentricity": 0.0,
        "Inclination(deg)": 45.0,
        "Latitude(deg)": 43.94774201011669,
        "Longitude(deg)": -138.7093890209229,
        "Mean Anomaly(deg)": 101.82386841499397,
        "RAAN(deg)": 214.99660465006582,
        "Satellite Name": "Constellation 1 952",
        "Satellite Number": 952,
        "Semi-Major Axis(m)": 7083131.272910544,
        "Time(s)": 60
    },
    {
        "Altitude(m)": 707035.9184552848,
        "Argument of Periapsis(deg)": 0.0036568283809697427,
        "Eccentricity": 0.0,
        "Inclination(deg)": 45.0,
        "Latitude(deg)": 43.935484109497374,
        "Longitude(deg)": -138.63109553754282,
        "Mean Anomaly(deg)": 101.8845695552438,
        "RAAN(deg)": 214.99654806090027,
        "Satellite Name": "Constellation 1 952",
        "Satellite Number": 952,
        "Semi-Major Axis(m)": 7083131.272910544,
        "Time(s)": 61
    },
    {
        "Altitude(m)": 707033.1608291691,
        "Argument of Periapsis(deg)": 0.003716776387215149,
        "Eccentricity": 0.0,
        "Inclination(deg)": 45.0,
        "Latitude(deg)": 43.923166809349546,
        "Longitude(deg)": -138.55283595921304,
        "Mean Anomaly(deg)": 101.94527069549373,
        "RAAN(deg)": 214.99649147173471,
        "Satellite Name": "Constellation 1 952",
        "Satellite Number": 952,
        "Semi-Major Axis(m)": 7083131.272910544,
        "Time(s)": 62
    },
    {
        "Altitude(m)": 707030.3901918809,
        "Argument of Periapsis(deg)": 0.003776724393460554,
        "Eccentricity": 0.0,
        "Inclination(deg)": 45.0,
        "Latitude(deg)": 43.91079015922717,
        "Longitude(deg)": -138.47461042101438,
        "Mean Anomaly(deg)": 102.00597183574361,
        "RAAN(deg)": 214.99643488256913,
        "Satellite Name": "Constellation 1 952",
        "Satellite Number": 952,
        "Semi-Major Axis(m)": 7083131.272910544,
        "Time(s)": 63
    },
    {
        "Altitude(m)": 707027.6065597697,
        "Argument of Periapsis(deg)": 0.003836672399705959,
        "Eccentricity": 0.0,
        "Inclination(deg)": 45.0,
        "Latitude(deg)": 43.89835420887085,
        "Longitude(deg)": -138.39641905750514,
        "Mean Anomaly(deg)": 102.06667297599354,
        "RAAN(deg)": 214.99637829340358,
        "Satellite Name": "Constellation 1 952",
        "Satellite Number": 952,
        "Semi-Major Axis(m)": 7083131.272910544,
        "Time(s)": 64
    },
    {
        "Altitude(m)": 707024.8099492693,
        "Argument of Periapsis(deg)": 0.003896620405951365,
        "Eccentricity": 0.0,
        "Inclination(deg)": 45.0,
        "Latitude(deg)": 43.88585900820702,
        "Longitude(deg)": -138.3182620027207,
        "Mean Anomaly(deg)": 102.12737411624343,
        "RAAN(deg)": 214.99632170423803,
        "Satellite Name": "Constellation 1 952",
        "Satellite Number": 952,
        "Semi-Major Axis(m)": 7083131.272910544,
        "Time(s)": 65
    },
    {
        "Altitude(m)": 707022.0003768868,
        "Argument of Periapsis(deg)": 0.003956568412196771,
        "Eccentricity": 0.0,
        "Inclination(deg)": 45.0,
        "Latitude(deg)": 43.873304607347116,
        "Longitude(deg)": -138.24013939017192,
        "Mean Anomaly(deg)": 102.18807525649329,
        "RAAN(deg)": 214.99626511507242,
        "Satellite Name": "Constellation 1 952",
        "Satellite Number": 952,
        "Semi-Major Axis(m)": 7083131.272910544,
        "Time(s)": 66
    },
    {
        "Altitude(m)": 707019.1778592148,
        "Argument of Periapsis(deg)": 0.004016516418442176,
        "Eccentricity": 0.0,
        "Inclination(deg)": 45.0,
        "Latitude(deg)": 43.86069105658676,
        "Longitude(deg)": -138.16205152094085,
        "Mean Anomaly(deg)": 102.24877639674328,
        "RAAN(deg)": 214.99620852590687,
        "Satellite Name": "Constellation 1 952",
        "Satellite Number": 952,
        "Semi-Major Axis(m)": 7083131.272910544,
        "Time(s)": 67
    },
    {
        "Altitude(m)": 707016.3424129132,
        "Argument of Periapsis(deg)": 0.004076464424687581,
        "Eccentricity": 0.0,
        "Inclination(deg)": 45.0,
        "Latitude(deg)": 43.84801840640414,
        "Longitude(deg)": -138.08399819129247,
        "Mean Anomaly(deg)": 102.30947753699313,
        "RAAN(deg)": 214.99615193674128,
        "Satellite Name": "Constellation 1 952",
        "Satellite Number": 952,
        "Semi-Major Axis(m)": 7083131.272910544,
        "Time(s)": 68
    },
    {
        "Altitude(m)": 707013.4940547299,
        "Argument of Periapsis(deg)": 0.004136412430932987,
        "Eccentricity": 0.0,
        "Inclination(deg)": 45.0,
        "Latitude(deg)": 43.8352867074604,
        "Longitude(deg)": -138.00597970125415,
        "Mean Anomaly(deg)": 102.37017867724302,
        "RAAN(deg)": 214.99609534757573,
        "Satellite Name": "Constellation 1 952",
        "Satellite Number": 952,
        "Semi-Major Axis(m)": 7083131.272910544,
        "Time(s)": 69
    },
    {
        "Altitude(m)": 707010.6328014797,
        "Argument of Periapsis(deg)": 0.004196360437178394,
        "Eccentricity": 0.0,
        "Inclination(deg)": 45.0,
        "Latitude(deg)": 43.822496010597845,
        "Longitude(deg)": -137.92799618222753,
        "Mean Anomaly(deg)": 102.43087981749292,
        "RAAN(deg)": 214.99603875841018,
        "Satellite Name": "Constellation 1 952",
        "Satellite Number": 952,
        "Semi-Major Axis(m)": 7083131.272910544,
        "Time(s)": 70
    },
    {
        "Altitude(m)": 707007.7586700668,
        "Argument of Periapsis(deg)": 0.004256308443423799,
        "Eccentricity": 0.0,
        "Inclination(deg)": 45.0,
        "Latitude(deg)": 43.80964636683932,
        "Longitude(deg)": -137.8500477650842,
        "Mean Anomaly(deg)": 102.49158095774283,
        "RAAN(deg)": 214.99598216924457,
        "Satellite Name": "Constellation 1 952",
        "Satellite Number": 952,
        "Semi-Major Axis(m)": 7083131.272910544,
        "Time(s)": 71
    },
    {
        "Altitude(m)": 707004.871677461,
        "Argument of Periapsis(deg)": 0.004316256449669204,
        "Eccentricity": 0.0,
        "Inclination(deg)": 45.0,
        "Latitude(deg)": 43.79673782738726,
        "Longitude(deg)": -137.7721345801645,
        "Mean Anomaly(deg)": 102.5522820979927,
        "RAAN(deg)": 214.99592558007902,
        "Satellite Name": "Constellation 1 952",
        "Satellite Number": 952,
        "Semi-Major Axis(m)": 7083131.272910544,
        "Time(s)": 72
    },
    {
        "Altitude(m)": 707001.971840718,
        "Argument of Periapsis(deg)": 0.00437620445591461,
        "Eccentricity": 0.0,
        "Inclination(deg)": 45.0,
        "Latitude(deg)": 43.78377044362285,
        "Longitude(deg)": -137.69425675727643,
        "Mean Anomaly(deg)": 102.61298323824259,
        "RAAN(deg)": 214.99586899091344,
        "Satellite Name": "Constellation 1 952",
        "Satellite Number": 952,
        "Semi-Major Axis(m)": 7083131.272910544,
        "Time(s)": 73
    },
    {
        "Altitude(m)": 706999.0591769677,
        "Argument of Periapsis(deg)": 0.004436152462160016,
        "Eccentricity": 0.0,
        "Inclination(deg)": 45.0,
        "Latitude(deg)": 43.770744267105385,
        "Longitude(deg)": -137.61641459379175,
        "Mean Anomaly(deg)": 102.67368437849257,
        "RAAN(deg)": 214.99581240174788,
        "Satellite Name": "Constellation 1 952",
        "Satellite Number": 952,
        "Semi-Major Axis(m)": 7083131.272910544,
        "Time(s)": 74
    },
    {
        "Altitude(m)": 706996.1337034128,
        "Argument of Periapsis(deg)": 0.0044961004684054215,
        "Eccentricity": 0.0,
        "Inclination(deg)": 45.0,
        "Latitude(deg)": 43.75765934957036,
        "Longitude(deg)": -137.5386078822571,
        "Mean Anomaly(deg)": 102.73438551874244,
        "RAAN(deg)": 214.99575581258227,
        "Satellite Name": "Constellation 1 952",
        "Satellite Number": 952,
        "Semi-Major Axis(m)": 7083131.272910544,
        "Time(s)": 75
    }
]